ONEWEB-0403             
1 50483U 21132Q   26027.44261485  .00000097  00000+0  21340-3 0  9998
2 50483  87.9202   3.3932 0001934  83.8632 276.2721 13.18686651203048
ONEWEB-0404             
1 50484U 21132R   26027.48766137  .00000128  00000+0  32630-3 0  9996
2 50484  87.8816  49.0731 0002162  91.4683 268.6693 13.11417771197254
ONEWEB-0405             
1 50485U 21132S   26027.45745716  .00000040  00000+0  69802-4 0  9999
2 50485  87.9202   3.3738 0001836  74.7911 285.3424 13.18687470203449
ONEWEB-0406             
1 50486U 21132T   26027.44756246  .00000062  00000+0  12339-3 0  9995
2 50486  87.9203   3.4015 0002248  91.6314 268.5076 13.18686807203071
ONEWEB-0407             
1 50487U 21132U   26027.44096126  .00000063  00000+0  12771-3 0  9991
2 50487  87.9203   3.3862 0001659  82.3902 277.7419 13.18687021203012
ONEWEB-0409             
1 50488U 21132V   26027.48597114  .00000075  00000+0  17482-3 0  9996
2 50488  87.8833  49.0497 0002167  97.5585 262.5789 13.11418045197141
ONEWEB-0412             
1 50489U 21132W   26027.42941143  .00000098  00000+0  21564-3 0  9997
2 50489  87.9203   3.4019 0001778  73.9715 286.1613 13.18686065203106
ONEWEB-0413             
1 50490U 21132X   26027.43435361  .00000104  00000+0  23189-3 0  9993
2 50490  87.9194   3.4091 0001600  75.9520 284.1790 13.18687862203040
